{
"type": "FeatureCollection",
"name": "all_boxes_gdf",
"crs": { "type": "name", "properties": { "name": "urn:ogc:def:crs:EPSG::26918" } },
"features": [
{ "type": "Feature", "properties": { "PARKNAME": "cobbscreek_box" }, "geometry": { "type": "Polygon", "coordinates": [ [ [ 478867.147976350272074, 4420925.632056911475956 ], [ 478867.147976350272074, 4422657.682864480651915 ], [ 477135.097168781445362, 4422657.682864480651915 ], [ 477135.097168781445362, 4420925.632056911475956 ], [ 478867.147976350272074, 4420925.632056911475956 ] ] ] } },
{ "type": "Feature", "properties": { "PARKNAME": "mifflin_box" }, "geometry": { "type": "Polygon", "coordinates": [ [ [ 487490.094422086316627, 4417967.581652264110744 ], [ 487490.094422086316627, 4419699.632459833286703 ], [ 485758.043614517489914, 4419699.632459833286703 ], [ 485758.043614517489914, 4417967.581652264110744 ], [ 487490.094422086316627, 4417967.581652264110744 ] ] ] } },
{ "type": "Feature", "properties": { "PARKNAME": "tacony_box" }, "geometry": { "type": "Polygon", "coordinates": [ [ [ 491768.558136139647104, 4430399.756841932423413 ], [ 491768.558136139647104, 4432131.807649501599371 ], [ 490036.507328570820391, 4432131.807649501599371 ], [ 490036.507328570820391, 4430399.756841932423413 ], [ 491768.558136139647104, 4430399.756841932423413 ] ] ] } },
{ "type": "Feature", "properties": { "PARKNAME": "fairmount_box" }, "geometry": { "type": "Polygon", "coordinates": [ [ [ 483510.060755157726817, 4425753.074789920821786 ], [ 483510.060755157726817, 4427485.125597489997745 ], [ 481778.009947588900104, 4427485.125597489997745 ], [ 481778.009947588900104, 4425753.074789920821786 ], [ 483510.060755157726817, 4425753.074789920821786 ] ] ] } },
{ "type": "Feature", "properties": { "PARKNAME": "fairmount_aoi_box" }, "geometry": { "type": "Polygon", "coordinates": [ [ [ 481765.350461717403959, 4425367.8963871486485 ], [ 481765.350461717403959, 4427099.947194717824459 ], [ 480033.299654148577247, 4427099.947194717824459 ], [ 480033.299654148577247, 4425367.8963871486485 ], [ 481765.350461717403959, 4425367.8963871486485 ] ] ] } },
{ "type": "Feature", "properties": { "PARKNAME": "cobbs_aoi_box" }, "geometry": { "type": "Polygon", "coordinates": [ [ [ 480910.149753083649557, 4420384.815848897211254 ], [ 480910.149753083649557, 4422116.866656466387212 ], [ 479178.098945514822844, 4422116.866656466387212 ], [ 479178.098945514822844, 4420384.815848897211254 ], [ 480910.149753083649557, 4420384.815848897211254 ] ] ] } },
{ "type": "Feature", "properties": { "PARKNAME": "cobbs_aoi_focus" }, "geometry": { "type": "Polygon", "coordinates": [ [ [ 479122.352104499412235, 4421669.752787123434246 ], [ 480248.357878242211882, 4420439.669464931823313 ], [ 480957.672937542840373, 4421087.955133011564612 ], [ 479882.893689351156354, 4422288.475833669304848 ], [ 479122.352104499412235, 4421669.752787123434246 ] ] ] } }
]
}
