{
"type": "FeatureCollection",
"name": "camera_gdf",
"crs": { "type": "name", "properties": { "name": "urn:ogc:def:crs:EPSG::26918" } },
"features": [
{ "type": "Feature", "properties": { "PARK_NAME": "Dorothy Emanuel Recreation Center", "DATE_INSTALLED": null, "COMMENTS": null, "DATA_SOURCE": "PPR GIS Field Visit 2024/2025" }, "geometry": { "type": "Point", "coordinates": [ 485067.007950683648232, 4436830.195951528847218 ] } },
{ "type": "Feature", "properties": { "PARK_NAME": "Dorothy Emanuel Recreation Center", "DATE_INSTALLED": null, "COMMENTS": null, "DATA_SOURCE": "PPR GIS Field Visit 2024/2025" }, "geometry": { "type": "Point", "coordinates": [ 485052.058750603697263, 4436849.497908407822251 ] } },
{ "type": "Feature", "properties": { "PARK_NAME": "A Albert Cherashore Playground", "DATE_INSTALLED": null, "COMMENTS": null, "DATA_SOURCE": "PPR GIS Field Visit 2024/2025" }, "geometry": { "type": "Point", "coordinates": [ 488328.293207422306295, 4432012.473632771521807 ] } },
{ "type": "Feature", "properties": { "PARK_NAME": "A Albert Cherashore Playground", "DATE_INSTALLED": null, "COMMENTS": null, "DATA_SOURCE": "PPR GIS Field Visit 2024/2025" }, "geometry": { "type": "Point", "coordinates": [ 488397.082232269982342, 4431930.070572136901319 ] } },
{ "type": "Feature", "properties": { "PARK_NAME": "A Albert Cherashore Playground", "DATE_INSTALLED": null, "COMMENTS": null, "DATA_SOURCE": "PPR GIS Field Visit 2024/2025" }, "geometry": { "type": "Point", "coordinates": [ 488328.250745943747461, 4432059.63621264975518 ] } },
{ "type": "Feature", "properties": { "PARK_NAME": "Helen G Sturgis Playground", "DATE_INSTALLED": null, "COMMENTS": null, "DATA_SOURCE": "PPR GIS Field Visit 2024/2025" }, "geometry": { "type": "Point", "coordinates": [ 489449.898290645272937, 4433207.712708647362888 ] } },
{ "type": "Feature", "properties": { "PARK_NAME": "Helen G Sturgis Playground", "DATE_INSTALLED": null, "COMMENTS": null, "DATA_SOURCE": "PPR GIS Field Visit 2024/2025" }, "geometry": { "type": "Point", "coordinates": [ 489465.635017991589848, 4433204.797145641408861 ] } },
{ "type": "Feature", "properties": { "PARK_NAME": "Helen G Sturgis Playground", "DATE_INSTALLED": null, "COMMENTS": null, "DATA_SOURCE": "PPR GIS Field Visit 2024/2025" }, "geometry": { "type": "Point", "coordinates": [ 489460.793147084186785, 4433226.445404843427241 ] } },
{ "type": "Feature", "properties": { "PARK_NAME": "Morris and Penn Park", "DATE_INSTALLED": null, "COMMENTS": null, "DATA_SOURCE": "PPR GIS Field Visit 2024/2025" }, "geometry": { "type": "Point", "coordinates": [ 484940.426472091116011, 4430690.597105382010341 ] } },
{ "type": "Feature", "properties": { "PARK_NAME": "Morris and Penn Park", "DATE_INSTALLED": null, "COMMENTS": null, "DATA_SOURCE": "PPR GIS Field Visit 2024/2025" }, "geometry": { "type": "Point", "coordinates": [ 484963.345976317767054, 4430687.584033507853746 ] } },
{ "type": "Feature", "properties": { "PARK_NAME": "Feltonville Recreation Center", "DATE_INSTALLED": null, "COMMENTS": null, "DATA_SOURCE": "PPR GIS Field Visit 2024/2025" }, "geometry": { "type": "Point", "coordinates": [ 489639.286668352840934, 4430126.306357433088124 ] } },
{ "type": "Feature", "properties": { "PARK_NAME": "Feltonville Recreation Center", "DATE_INSTALLED": null, "COMMENTS": null, "DATA_SOURCE": "PPR GIS Field Visit 2024/2025" }, "geometry": { "type": "Point", "coordinates": [ 489647.068908630288206, 4430151.820469785481691 ] } },
{ "type": "Feature", "properties": { "PARK_NAME": "Feltonville Recreation Center", "DATE_INSTALLED": null, "COMMENTS": null, "DATA_SOURCE": "PPR GIS Field Visit 2024/2025" }, "geometry": { "type": "Point", "coordinates": [ 489681.218930581700988, 4430153.261359407566488 ] } },
{ "type": "Feature", "properties": { "PARK_NAME": "Feltonville Recreation Center", "DATE_INSTALLED": null, "COMMENTS": null, "DATA_SOURCE": "PPR GIS Field Visit 2024/2025" }, "geometry": { "type": "Point", "coordinates": [ 489686.550085285620298, 4430180.749280185438693 ] } },
{ "type": "Feature", "properties": { "PARK_NAME": "Lauretha Vaird Fields", "DATE_INSTALLED": null, "COMMENTS": null, "DATA_SOURCE": "PPR GIS Field Visit 2024/2025" }, "geometry": { "type": "Point", "coordinates": [ 490362.115578687924426, 4430218.065100144594908 ] } },
{ "type": "Feature", "properties": { "PARK_NAME": "Lauretha Vaird Fields", "DATE_INSTALLED": null, "COMMENTS": null, "DATA_SOURCE": "PPR GIS Field Visit 2024/2025" }, "geometry": { "type": "Point", "coordinates": [ 490378.673392089956906, 4430249.260430737398565 ] } },
{ "type": "Feature", "properties": { "PARK_NAME": "Charles J Ziehler Playground", "DATE_INSTALLED": null, "COMMENTS": null, "DATA_SOURCE": "PPR GIS Field Visit 2024/2025" }, "geometry": { "type": "Point", "coordinates": [ 489929.350890924921259, 4431520.773164701648057 ] } },
{ "type": "Feature", "properties": { "PARK_NAME": "Charles J Ziehler Playground", "DATE_INSTALLED": null, "COMMENTS": null, "DATA_SOURCE": "PPR GIS Field Visit 2024/2025" }, "geometry": { "type": "Point", "coordinates": [ 489945.135659766034223, 4431528.789501413702965 ] } },
{ "type": "Feature", "properties": { "PARK_NAME": "Charles J Ziehler Playground", "DATE_INSTALLED": null, "COMMENTS": null, "DATA_SOURCE": "PPR GIS Field Visit 2024/2025" }, "geometry": { "type": "Point", "coordinates": [ 489923.789231678587385, 4431528.246875714510679 ] } },
{ "type": "Feature", "properties": { "PARK_NAME": "Charles J Ziehler Playground", "DATE_INSTALLED": null, "COMMENTS": null, "DATA_SOURCE": "PPR GIS Field Visit 2024/2025" }, "geometry": { "type": "Point", "coordinates": [ 489931.638468703138642, 4431542.7690384183079 ] } },
{ "type": "Feature", "properties": { "PARK_NAME": "Charles J Ziehler Playground", "DATE_INSTALLED": null, "COMMENTS": null, "DATA_SOURCE": "PPR GIS Field Visit 2024/2025" }, "geometry": { "type": "Point", "coordinates": [ 489946.545761124696583, 4431542.258443485945463 ] } },
{ "type": "Feature", "properties": { "PARK_NAME": "Charles J Ziehler Playground", "DATE_INSTALLED": null, "COMMENTS": null, "DATA_SOURCE": "PPR GIS Field Visit 2024/2025" }, "geometry": { "type": "Point", "coordinates": [ 489934.924111744156107, 4431551.492710745893419 ] } },
{ "type": "Feature", "properties": { "PARK_NAME": "Charles J Ziehler Playground", "DATE_INSTALLED": null, "COMMENTS": null, "DATA_SOURCE": "PPR GIS Field Visit 2024/2025" }, "geometry": { "type": "Point", "coordinates": [ 489945.650546058022883, 4431543.433133740909398 ] } },
{ "type": "Feature", "properties": { "PARK_NAME": "Charles J Ziehler Playground", "DATE_INSTALLED": null, "COMMENTS": null, "DATA_SOURCE": "PPR GIS Field Visit 2024/2025" }, "geometry": { "type": "Point", "coordinates": [ 489919.240512299293187, 4431560.18599412124604 ] } },
{ "type": "Feature", "properties": { "PARK_NAME": "Charles J Ziehler Playground", "DATE_INSTALLED": null, "COMMENTS": null, "DATA_SOURCE": "PPR GIS Field Visit 2024/2025" }, "geometry": { "type": "Point", "coordinates": [ 489932.939162299735472, 4431545.2537892293185 ] } },
{ "type": "Feature", "properties": { "PARK_NAME": "Charles J Ziehler Playground", "DATE_INSTALLED": null, "COMMENTS": null, "DATA_SOURCE": "PPR GIS Field Visit 2024/2025" }, "geometry": { "type": "Point", "coordinates": [ 489914.62185790296644, 4431594.834962199442089 ] } },
{ "type": "Feature", "properties": { "PARK_NAME": "Hammond and Nedro Fields", "DATE_INSTALLED": null, "COMMENTS": null, "DATA_SOURCE": "PPR GIS Field Visit 2024/2025" }, "geometry": { "type": "Point", "coordinates": [ 490140.79400429764064, 4432140.207474363967776 ] } },
{ "type": "Feature", "properties": { "PARK_NAME": "Hammond and Nedro Fields", "DATE_INSTALLED": null, "COMMENTS": null, "DATA_SOURCE": "PPR GIS Field Visit 2024/2025" }, "geometry": { "type": "Point", "coordinates": [ 490149.898029836593196, 4432165.522760676220059 ] } },
{ "type": "Feature", "properties": { "PARK_NAME": "Hammond and Nedro Fields", "DATE_INSTALLED": null, "COMMENTS": null, "DATA_SOURCE": "PPR GIS Field Visit 2024/2025" }, "geometry": { "type": "Point", "coordinates": [ 490155.598322812933475, 4432176.404772804118693 ] } },
{ "type": "Feature", "properties": { "PARK_NAME": "Hammond and Nedro Fields", "DATE_INSTALLED": null, "COMMENTS": null, "DATA_SOURCE": "PPR GIS Field Visit 2024/2025" }, "geometry": { "type": "Point", "coordinates": [ 490139.751887045102194, 4432176.660388843156397 ] } },
{ "type": "Feature", "properties": { "PARK_NAME": "Hammond and Nedro Fields", "DATE_INSTALLED": null, "COMMENTS": null, "DATA_SOURCE": "PPR GIS Field Visit 2024/2025" }, "geometry": { "type": "Point", "coordinates": [ 490142.112454819725826, 4432182.265854944474995 ] } },
{ "type": "Feature", "properties": { "PARK_NAME": "Clarkson Park", "DATE_INSTALLED": null, "COMMENTS": null, "DATA_SOURCE": "PPR GIS Field Visit 2024/2025" }, "geometry": { "type": "Point", "coordinates": [ 487617.596476851729676, 4431684.581749677658081 ] } },
{ "type": "Feature", "properties": { "PARK_NAME": "Clarkson Park", "DATE_INSTALLED": null, "COMMENTS": null, "DATA_SOURCE": "PPR GIS Field Visit 2024/2025" }, "geometry": { "type": "Point", "coordinates": [ 487640.9860823021736, 4431882.397301507182419 ] } },
{ "type": "Feature", "properties": { "PARK_NAME": "Stenton Park", "DATE_INSTALLED": null, "COMMENTS": null, "DATA_SOURCE": "PPR GIS Field Visit 2024/2025" }, "geometry": { "type": "Point", "coordinates": [ 486943.599928801122587, 4430434.07123289257288 ] } },
{ "type": "Feature", "properties": { "PARK_NAME": "Stenton Park", "DATE_INSTALLED": null, "COMMENTS": null, "DATA_SOURCE": "PPR GIS Field Visit 2024/2025" }, "geometry": { "type": "Point", "coordinates": [ 486967.675312188279349, 4430439.496266202069819 ] } },
{ "type": "Feature", "properties": { "PARK_NAME": "Stenton Park", "DATE_INSTALLED": null, "COMMENTS": null, "DATA_SOURCE": "PPR GIS Field Visit 2024/2025" }, "geometry": { "type": "Point", "coordinates": [ 486966.442952443496324, 4430439.132095389999449 ] } },
{ "type": "Feature", "properties": { "PARK_NAME": "Stenton Park", "DATE_INSTALLED": null, "COMMENTS": null, "DATA_SOURCE": "PPR GIS Field Visit 2024/2025" }, "geometry": { "type": "Point", "coordinates": [ 486980.154818668263033, 4430452.183219729922712 ] } },
{ "type": "Feature", "properties": { "PARK_NAME": "Stenton Park", "DATE_INSTALLED": null, "COMMENTS": null, "DATA_SOURCE": "PPR GIS Field Visit 2024/2025" }, "geometry": { "type": "Point", "coordinates": [ 486976.139754541160073, 4430471.132899519056082 ] } },
{ "type": "Feature", "properties": { "PARK_NAME": "Happy Hollow Recreation Center", "DATE_INSTALLED": null, "COMMENTS": null, "DATA_SOURCE": "PPR GIS Field Visit 2024/2025" }, "geometry": { "type": "Point", "coordinates": [ 485823.534822792746127, 4430485.886304734274745 ] } },
{ "type": "Feature", "properties": { "PARK_NAME": "Happy Hollow Recreation Center", "DATE_INSTALLED": null, "COMMENTS": null, "DATA_SOURCE": "PPR GIS Field Visit 2024/2025" }, "geometry": { "type": "Point", "coordinates": [ 485800.892658732016571, 4430476.798555259592831 ] } },
{ "type": "Feature", "properties": { "PARK_NAME": "Happy Hollow Recreation Center", "DATE_INSTALLED": null, "COMMENTS": null, "DATA_SOURCE": "PPR GIS Field Visit 2024/2025" }, "geometry": { "type": "Point", "coordinates": [ 485824.465496627381071, 4430473.161762750707567 ] } },
{ "type": "Feature", "properties": { "PARK_NAME": "Happy Hollow Recreation Center", "DATE_INSTALLED": null, "COMMENTS": null, "DATA_SOURCE": "PPR GIS Field Visit 2024/2025" }, "geometry": { "type": "Point", "coordinates": [ 485821.696260281198192, 4430467.43229824770242 ] } },
{ "type": "Feature", "properties": { "PARK_NAME": "Happy Hollow Recreation Center", "DATE_INSTALLED": null, "COMMENTS": null, "DATA_SOURCE": "PPR GIS Field Visit 2024/2025" }, "geometry": { "type": "Point", "coordinates": [ 485827.941593005380128, 4430460.776715024374425 ] } },
{ "type": "Feature", "properties": { "PARK_NAME": "Happy Hollow Recreation Center", "DATE_INSTALLED": null, "COMMENTS": null, "DATA_SOURCE": "PPR GIS Field Visit 2024/2025" }, "geometry": { "type": "Point", "coordinates": [ 485812.36484911252046, 4430468.679312366060913 ] } },
{ "type": "Feature", "properties": { "PARK_NAME": "Happy Hollow Recreation Center", "DATE_INSTALLED": null, "COMMENTS": null, "DATA_SOURCE": "PPR GIS Field Visit 2024/2025" }, "geometry": { "type": "Point", "coordinates": [ 485834.32046219316544, 4430413.103983937762678 ] } },
{ "type": "Feature", "properties": { "PARK_NAME": "Happy Hollow Recreation Center", "DATE_INSTALLED": null, "COMMENTS": null, "DATA_SOURCE": "PPR GIS Field Visit 2024/2025" }, "geometry": { "type": "Point", "coordinates": [ 485854.422642206598539, 4430435.544334329664707 ] } },
{ "type": "Feature", "properties": { "PARK_NAME": "Happy Hollow Recreation Center", "DATE_INSTALLED": null, "COMMENTS": null, "DATA_SOURCE": "PPR GIS Field Visit 2024/2025" }, "geometry": { "type": "Point", "coordinates": [ 485866.602976227412, 4430429.753178786486387 ] } },
{ "type": "Feature", "properties": { "PARK_NAME": "Happy Hollow Recreation Center", "DATE_INSTALLED": null, "COMMENTS": null, "DATA_SOURCE": "PPR GIS Field Visit 2024/2025" }, "geometry": { "type": "Point", "coordinates": [ 485763.872016559238546, 4430366.932759376242757 ] } },
{ "type": "Feature", "properties": { "PARK_NAME": "Happy Hollow Recreation Center", "DATE_INSTALLED": null, "COMMENTS": null, "DATA_SOURCE": "PPR GIS Field Visit 2024/2025" }, "geometry": { "type": "Point", "coordinates": [ 485849.231837118568365, 4430426.425016392022371 ] } },
{ "type": "Feature", "properties": { "PARK_NAME": "Norman (Butch) Ellis Playground", "DATE_INSTALLED": null, "COMMENTS": null, "DATA_SOURCE": "PPR GIS Field Visit 2024/2025" }, "geometry": { "type": "Point", "coordinates": [ 482850.00205077190185, 4424001.285792813636363 ] } },
{ "type": "Feature", "properties": { "PARK_NAME": "Norman (Butch) Ellis Playground", "DATE_INSTALLED": null, "COMMENTS": null, "DATA_SOURCE": "PPR GIS Field Visit 2024/2025" }, "geometry": { "type": "Point", "coordinates": [ 482847.998151976033114, 4423998.303786440752447 ] } },
{ "type": "Feature", "properties": { "PARK_NAME": "Norman (Butch) Ellis Playground", "DATE_INSTALLED": null, "COMMENTS": null, "DATA_SOURCE": "PPR GIS Field Visit 2024/2025" }, "geometry": { "type": "Point", "coordinates": [ 482844.208576281613205, 4424001.162499543279409 ] } },
{ "type": "Feature", "properties": { "PARK_NAME": "Norman (Butch) Ellis Playground", "DATE_INSTALLED": null, "COMMENTS": null, "DATA_SOURCE": "PPR GIS Field Visit 2024/2025" }, "geometry": { "type": "Point", "coordinates": [ 482806.075512605544645, 4424014.006856497377157 ] } },
{ "type": "Feature", "properties": { "PARK_NAME": "Norman (Butch) Ellis Playground", "DATE_INSTALLED": null, "COMMENTS": null, "DATA_SOURCE": "PPR GIS Field Visit 2024/2025" }, "geometry": { "type": "Point", "coordinates": [ 482807.92744660563767, 4423997.889621883630753 ] } },
{ "type": "Feature", "properties": { "PARK_NAME": "Norman (Butch) Ellis Playground", "DATE_INSTALLED": null, "COMMENTS": null, "DATA_SOURCE": "PPR GIS Field Visit 2024/2025" }, "geometry": { "type": "Point", "coordinates": [ 482812.84399018791737, 4423969.888602395541966 ] } },
{ "type": "Feature", "properties": { "PARK_NAME": "Miles Mack Playground", "DATE_INSTALLED": null, "COMMENTS": null, "DATA_SOURCE": "PPR GIS Field Visit 2024/2025" }, "geometry": { "type": "Point", "coordinates": [ 483315.918963077187072, 4424164.073262420482934 ] } },
{ "type": "Feature", "properties": { "PARK_NAME": "Miles Mack Playground", "DATE_INSTALLED": null, "COMMENTS": null, "DATA_SOURCE": "PPR GIS Field Visit 2024/2025" }, "geometry": { "type": "Point", "coordinates": [ 483315.932063616754021, 4424153.605783935636282 ] } },
{ "type": "Feature", "properties": { "PARK_NAME": "Miles Mack Playground", "DATE_INSTALLED": null, "COMMENTS": null, "DATA_SOURCE": "PPR GIS Field Visit 2024/2025" }, "geometry": { "type": "Point", "coordinates": [ 483302.190895775624085, 4424163.816425126045942 ] } },
{ "type": "Feature", "properties": { "PARK_NAME": "Miles Mack Playground", "DATE_INSTALLED": null, "COMMENTS": null, "DATA_SOURCE": "PPR GIS Field Visit 2024/2025" }, "geometry": { "type": "Point", "coordinates": [ 483266.17103404039517, 4424170.00371724832803 ] } },
{ "type": "Feature", "properties": { "PARK_NAME": "Miles Mack Playground", "DATE_INSTALLED": null, "COMMENTS": null, "DATA_SOURCE": "PPR GIS Field Visit 2024/2025" }, "geometry": { "type": "Point", "coordinates": [ 483307.279600911249872, 4424151.03035328257829 ] } },
{ "type": "Feature", "properties": { "PARK_NAME": "James L Wright Playground", "DATE_INSTALLED": null, "COMMENTS": null, "DATA_SOURCE": "PPR GIS Field Visit 2024/2025" }, "geometry": { "type": "Point", "coordinates": [ 483693.633300815010443, 4423752.98653622996062 ] } },
{ "type": "Feature", "properties": { "PARK_NAME": "33rd and Wallace Playground", "DATE_INSTALLED": null, "COMMENTS": null, "DATA_SOURCE": "PPR GIS Field Visit 2024/2025" }, "geometry": { "type": "Point", "coordinates": [ 483707.05969230592018, 4423899.251313013955951 ] } },
{ "type": "Feature", "properties": { "PARK_NAME": "33rd and Wallace Playground", "DATE_INSTALLED": null, "COMMENTS": null, "DATA_SOURCE": "PPR GIS Field Visit 2024/2025" }, "geometry": { "type": "Point", "coordinates": [ 483714.643971348763444, 4423897.888423033989966 ] } },
{ "type": "Feature", "properties": { "PARK_NAME": "33rd and Wallace Playground", "DATE_INSTALLED": null, "COMMENTS": null, "DATA_SOURCE": "PPR GIS Field Visit 2024/2025" }, "geometry": { "type": "Point", "coordinates": [ 483692.189838002086617, 4423901.735373180359602 ] } },
{ "type": "Feature", "properties": { "PARK_NAME": "33rd and Wallace Playground", "DATE_INSTALLED": null, "COMMENTS": null, "DATA_SOURCE": "PPR GIS Field Visit 2024/2025" }, "geometry": { "type": "Point", "coordinates": [ 483710.123498030530754, 4423897.247265757992864 ] } },
{ "type": "Feature", "properties": { "PARK_NAME": "George C Pelbano Playground", "DATE_INSTALLED": null, "COMMENTS": null, "DATA_SOURCE": "PPR GIS Field Visit 2024/2025" }, "geometry": { "type": "Point", "coordinates": [ 495651.657490238838363, 4434669.322386783547699 ] } },
{ "type": "Feature", "properties": { "PARK_NAME": "George C Pelbano Playground", "DATE_INSTALLED": null, "COMMENTS": null, "DATA_SOURCE": "PPR GIS Field Visit 2024/2025" }, "geometry": { "type": "Point", "coordinates": [ 495620.891848989762366, 4434640.506537326611578 ] } },
{ "type": "Feature", "properties": { "PARK_NAME": "George C Pelbano Playground", "DATE_INSTALLED": null, "COMMENTS": null, "DATA_SOURCE": "PPR GIS Field Visit 2024/2025" }, "geometry": { "type": "Point", "coordinates": [ 495657.01363298605429, 4434687.834084409289062 ] } },
{ "type": "Feature", "properties": { "PARK_NAME": "George C Pelbano Playground", "DATE_INSTALLED": null, "COMMENTS": null, "DATA_SOURCE": "PPR GIS Field Visit 2024/2025" }, "geometry": { "type": "Point", "coordinates": [ 495650.449004658672493, 4434635.356737828813493 ] } },
{ "type": "Feature", "properties": { "PARK_NAME": "George C Pelbano Playground", "DATE_INSTALLED": null, "COMMENTS": null, "DATA_SOURCE": "PPR GIS Field Visit 2024/2025" }, "geometry": { "type": "Point", "coordinates": [ 495685.452652321313508, 4434651.943851232528687 ] } },
{ "type": "Feature", "properties": { "PARK_NAME": "George C Pelbano Playground", "DATE_INSTALLED": null, "COMMENTS": null, "DATA_SOURCE": "PPR GIS Field Visit 2024/2025" }, "geometry": { "type": "Point", "coordinates": [ 495684.854531657125335, 4434656.758571813814342 ] } },
{ "type": "Feature", "properties": { "PARK_NAME": "George C Pelbano Playground", "DATE_INSTALLED": null, "COMMENTS": null, "DATA_SOURCE": "PPR GIS Field Visit 2024/2025" }, "geometry": { "type": "Point", "coordinates": [ 495669.001476316712797, 4434643.245383741334081 ] } },
{ "type": "Feature", "properties": { "PARK_NAME": "Thomas E Jardel Memorial Field", "DATE_INSTALLED": null, "COMMENTS": null, "DATA_SOURCE": "PPR GIS Field Visit 2024/2025" }, "geometry": { "type": "Point", "coordinates": [ 493571.334900739369914, 4434004.621516837738454 ] } },
{ "type": "Feature", "properties": { "PARK_NAME": "Thomas E Jardel Memorial Field", "DATE_INSTALLED": null, "COMMENTS": null, "DATA_SOURCE": "PPR GIS Field Visit 2024/2025" }, "geometry": { "type": "Point", "coordinates": [ 493553.609376145293936, 4434020.610218372195959 ] } },
{ "type": "Feature", "properties": { "PARK_NAME": "Thomas E Jardel Memorial Field", "DATE_INSTALLED": null, "COMMENTS": null, "DATA_SOURCE": "PPR GIS Field Visit 2024/2025" }, "geometry": { "type": "Point", "coordinates": [ 493525.789937655848917, 4433982.144982925616205 ] } },
{ "type": "Feature", "properties": { "PARK_NAME": "Thomas E Jardel Memorial Field", "DATE_INSTALLED": null, "COMMENTS": null, "DATA_SOURCE": "PPR GIS Field Visit 2024/2025" }, "geometry": { "type": "Point", "coordinates": [ 493501.998954956885427, 4434047.07955767121166 ] } },
{ "type": "Feature", "properties": { "PARK_NAME": "Thomas E Jardel Memorial Field", "DATE_INSTALLED": null, "COMMENTS": null, "DATA_SOURCE": "PPR GIS Field Visit 2024/2025" }, "geometry": { "type": "Point", "coordinates": [ 493488.526728450611699, 4434037.052155101671815 ] } },
{ "type": "Feature", "properties": { "PARK_NAME": "Thomas E Jardel Memorial Field", "DATE_INSTALLED": null, "COMMENTS": null, "DATA_SOURCE": "PPR GIS Field Visit 2024/2025" }, "geometry": { "type": "Point", "coordinates": [ 493427.925940126180649, 4434022.694278609007597 ] } },
{ "type": "Feature", "properties": { "PARK_NAME": "Thomas E Jardel Memorial Field", "DATE_INSTALLED": null, "COMMENTS": null, "DATA_SOURCE": "PPR GIS Field Visit 2024/2025" }, "geometry": { "type": "Point", "coordinates": [ 493552.824180597614031, 4433983.743705951608717 ] } },
{ "type": "Feature", "properties": { "PARK_NAME": "Fox Chase Recreation Center", "DATE_INSTALLED": null, "COMMENTS": null, "DATA_SOURCE": "PPR GIS Field Visit 2024/2025" }, "geometry": { "type": "Point", "coordinates": [ 493005.208593778079376, 4435960.687960741110146 ] } },
{ "type": "Feature", "properties": { "PARK_NAME": "Fox Chase Recreation Center", "DATE_INSTALLED": null, "COMMENTS": null, "DATA_SOURCE": "PPR GIS Field Visit 2024/2025" }, "geometry": { "type": "Point", "coordinates": [ 493022.868550729879644, 4435984.12818203959614 ] } },
{ "type": "Feature", "properties": { "PARK_NAME": "Fox Chase Recreation Center", "DATE_INSTALLED": null, "COMMENTS": null, "DATA_SOURCE": "PPR GIS Field Visit 2024/2025" }, "geometry": { "type": "Point", "coordinates": [ 492967.21073812188115, 4435913.715498498640954 ] } },
{ "type": "Feature", "properties": { "PARK_NAME": "Fox Chase Recreation Center", "DATE_INSTALLED": null, "COMMENTS": null, "DATA_SOURCE": "PPR GIS Field Visit 2024/2025" }, "geometry": { "type": "Point", "coordinates": [ 492987.113131672667805, 4435989.208816519938409 ] } },
{ "type": "Feature", "properties": { "PARK_NAME": "Fox Chase Recreation Center", "DATE_INSTALLED": null, "COMMENTS": null, "DATA_SOURCE": "PPR GIS Field Visit 2024/2025" }, "geometry": { "type": "Point", "coordinates": [ 493056.046697791200131, 4435977.515641679987311 ] } },
{ "type": "Feature", "properties": { "PARK_NAME": "Fox Chase Recreation Center", "DATE_INSTALLED": null, "COMMENTS": null, "DATA_SOURCE": "PPR GIS Field Visit 2024/2025" }, "geometry": { "type": "Point", "coordinates": [ 493021.24698494450422, 4436001.636602010577917 ] } },
{ "type": "Feature", "properties": { "PARK_NAME": "Fox Chase Recreation Center", "DATE_INSTALLED": null, "COMMENTS": null, "DATA_SOURCE": "PPR GIS Field Visit 2024/2025" }, "geometry": { "type": "Point", "coordinates": [ 493093.653652856417466, 4435959.468997603282332 ] } },
{ "type": "Feature", "properties": { "PARK_NAME": "Fox Chase Recreation Center", "DATE_INSTALLED": null, "COMMENTS": null, "DATA_SOURCE": "PPR GIS Field Visit 2024/2025" }, "geometry": { "type": "Point", "coordinates": [ 493069.433974214538466, 4435801.195706992410123 ] } },
{ "type": "Feature", "properties": { "PARK_NAME": "Fox Chase Recreation Center", "DATE_INSTALLED": null, "COMMENTS": null, "DATA_SOURCE": "PPR GIS Field Visit 2024/2025" }, "geometry": { "type": "Point", "coordinates": [ 493145.118025835312437, 4435974.838819978758693 ] } },
{ "type": "Feature", "properties": { "PARK_NAME": "Fox Chase Recreation Center", "DATE_INSTALLED": null, "COMMENTS": null, "DATA_SOURCE": "PPR GIS Field Visit 2024/2025" }, "geometry": { "type": "Point", "coordinates": [ 493143.49895565956831, 4435914.478348677046597 ] } },
{ "type": "Feature", "properties": { "PARK_NAME": "Fox Chase Recreation Center", "DATE_INSTALLED": null, "COMMENTS": null, "DATA_SOURCE": "PPR GIS Field Visit 2024/2025" }, "geometry": { "type": "Point", "coordinates": [ 493145.074719810625538, 4435898.678534563630819 ] } },
{ "type": "Feature", "properties": { "PARK_NAME": "Fox Chase Recreation Center", "DATE_INSTALLED": null, "COMMENTS": null, "DATA_SOURCE": "PPR GIS Field Visit 2024/2025" }, "geometry": { "type": "Point", "coordinates": [ 493095.722941835294478, 4435826.624226940795779 ] } },
{ "type": "Feature", "properties": { "PARK_NAME": "Fox Chase Recreation Center", "DATE_INSTALLED": null, "COMMENTS": null, "DATA_SOURCE": "PPR GIS Field Visit 2024/2025" }, "geometry": { "type": "Point", "coordinates": [ 493156.384191066434141, 4435866.397901084274054 ] } },
{ "type": "Feature", "properties": { "PARK_NAME": "Fernhill Park", "DATE_INSTALLED": null, "COMMENTS": null, "DATA_SOURCE": "PPR GIS Field Visit 2024/2025" }, "geometry": { "type": "Point", "coordinates": [ 485559.978753911273088, 4429604.660187233239412 ] } },
{ "type": "Feature", "properties": { "PARK_NAME": "Fernhill Park", "DATE_INSTALLED": null, "COMMENTS": null, "DATA_SOURCE": "PPR GIS Field Visit 2024/2025" }, "geometry": { "type": "Point", "coordinates": [ 485513.019068919064011, 4429789.148186161182821 ] } },
{ "type": "Feature", "properties": { "PARK_NAME": "Fernhill Park", "DATE_INSTALLED": null, "COMMENTS": null, "DATA_SOURCE": "PPR GIS Field Visit 2024/2025" }, "geometry": { "type": "Point", "coordinates": [ 485647.914363394200336, 4429884.28924816288054 ] } },
{ "type": "Feature", "properties": { "PARK_NAME": "Fernhill Park", "DATE_INSTALLED": null, "COMMENTS": null, "DATA_SOURCE": "PPR GIS Field Visit 2024/2025" }, "geometry": { "type": "Point", "coordinates": [ 485579.86204591760179, 4429949.218250196427107 ] } },
{ "type": "Feature", "properties": { "PARK_NAME": "Fernhill Park", "DATE_INSTALLED": null, "COMMENTS": null, "DATA_SOURCE": "PPR GIS Field Visit 2024/2025" }, "geometry": { "type": "Point", "coordinates": [ 485607.169514345761854, 4430011.629567692987621 ] } },
{ "type": "Feature", "properties": { "PARK_NAME": "Fernhill Park", "DATE_INSTALLED": null, "COMMENTS": null, "DATA_SOURCE": "PPR GIS Field Visit 2024/2025" }, "geometry": { "type": "Point", "coordinates": [ 485718.587141331401654, 4430042.926146510057151 ] } },
{ "type": "Feature", "properties": { "PARK_NAME": "Fernhill Park", "DATE_INSTALLED": null, "COMMENTS": null, "DATA_SOURCE": "PPR GIS Field Visit 2024/2025" }, "geometry": { "type": "Point", "coordinates": [ 485753.960054069815669, 4430027.953498302027583 ] } },
{ "type": "Feature", "properties": { "PARK_NAME": "Fernhill Park", "DATE_INSTALLED": null, "COMMENTS": null, "DATA_SOURCE": "PPR GIS Field Visit 2024/2025" }, "geometry": { "type": "Point", "coordinates": [ 485563.913360885926522, 4429853.162402475252748 ] } },
{ "type": "Feature", "properties": { "PARK_NAME": "8th and Diamond Playground", "DATE_INSTALLED": null, "COMMENTS": null, "DATA_SOURCE": "PPR GIS Field Visit 2024/2025" }, "geometry": { "type": "Point", "coordinates": [ 487397.735206898185425, 4425890.503340691328049 ] } },
{ "type": "Feature", "properties": { "PARK_NAME": "8th and Diamond Playground", "DATE_INSTALLED": null, "COMMENTS": null, "DATA_SOURCE": "PPR GIS Field Visit 2024/2025" }, "geometry": { "type": "Point", "coordinates": [ 487394.651758471503854, 4425858.138099230825901 ] } },
{ "type": "Feature", "properties": { "PARK_NAME": "8th and Diamond Playground", "DATE_INSTALLED": null, "COMMENTS": null, "DATA_SOURCE": "PPR GIS Field Visit 2024/2025" }, "geometry": { "type": "Point", "coordinates": [ 487419.667317730956711, 4425926.578554522246122 ] } },
{ "type": "Feature", "properties": { "PARK_NAME": "Michael J Towey Playground", "DATE_INSTALLED": null, "COMMENTS": null, "DATA_SOURCE": "PPR GIS Field Visit 2024/2025" }, "geometry": { "type": "Point", "coordinates": [ 488456.65788142994279, 4425354.232363996095955 ] } },
{ "type": "Feature", "properties": { "PARK_NAME": "Michael J Towey Playground", "DATE_INSTALLED": null, "COMMENTS": null, "DATA_SOURCE": "PPR GIS Field Visit 2024/2025" }, "geometry": { "type": "Point", "coordinates": [ 488477.629991509893443, 4425367.966230579651892 ] } },
{ "type": "Feature", "properties": { "PARK_NAME": "East Poplar Playground", "DATE_INSTALLED": null, "COMMENTS": null, "DATA_SOURCE": "PPR GIS Field Visit 2024/2025" }, "geometry": { "type": "Point", "coordinates": [ 487070.497484771010932, 4424008.004423247650266 ] } },
{ "type": "Feature", "properties": { "PARK_NAME": "East Poplar Playground", "DATE_INSTALLED": null, "COMMENTS": null, "DATA_SOURCE": "PPR GIS Field Visit 2024/2025" }, "geometry": { "type": "Point", "coordinates": [ 487073.533370676392224, 4424012.11649173963815 ] } },
{ "type": "Feature", "properties": { "PARK_NAME": "East Poplar Playground", "DATE_INSTALLED": null, "COMMENTS": null, "DATA_SOURCE": "PPR GIS Field Visit 2024/2025" }, "geometry": { "type": "Point", "coordinates": [ 487102.851469967223238, 4424073.899964230135083 ] } },
{ "type": "Feature", "properties": { "PARK_NAME": "East Poplar Playground", "DATE_INSTALLED": null, "COMMENTS": null, "DATA_SOURCE": "PPR GIS Field Visit 2024/2025" }, "geometry": { "type": "Point", "coordinates": [ 487080.225991287908982, 4424101.71843958646059 ] } },
{ "type": "Feature", "properties": { "PARK_NAME": "Charles H Chew Playground", "DATE_INSTALLED": null, "COMMENTS": null, "DATA_SOURCE": "PPR GIS Field Site Visit 2025" }, "geometry": { "type": "Point", "coordinates": [ 485126.557567174895667, 4420890.567584123462439 ] } },
{ "type": "Feature", "properties": { "PARK_NAME": "Charles H Chew Playground\r\n", "DATE_INSTALLED": null, "COMMENTS": null, "DATA_SOURCE": "PPR GIS Field Site Visit 2025" }, "geometry": { "type": "Point", "coordinates": [ 485102.56068802671507, 4420890.635826002806425 ] } },
{ "type": "Feature", "properties": { "PARK_NAME": "Charles H Chew Playground\r\n", "DATE_INSTALLED": null, "COMMENTS": null, "DATA_SOURCE": "PPR GIS Field Site Visit 2025" }, "geometry": { "type": "Point", "coordinates": [ 485110.132486692513339, 4420888.696473453193903 ] } },
{ "type": "Feature", "properties": { "PARK_NAME": "Charles H Chew Playground\r\n", "DATE_INSTALLED": null, "COMMENTS": null, "DATA_SOURCE": "PPR GIS Field Site Visit 2025" }, "geometry": { "type": "Point", "coordinates": [ 485110.222610199591145, 4420881.121404347941279 ] } },
{ "type": "Feature", "properties": { "PARK_NAME": "Charles H Chew Playground\r\n", "DATE_INSTALLED": null, "COMMENTS": null, "DATA_SOURCE": "PPR GIS Field Site Visit 2025" }, "geometry": { "type": "Point", "coordinates": [ 485073.071113854122814, 4420942.874909731559455 ] } },
{ "type": "Feature", "properties": { "PARK_NAME": "Grays Ferry Crescent", "DATE_INSTALLED": null, "COMMENTS": null, "DATA_SOURCE": "PPR GIS Field Site Visit 2025" }, "geometry": { "type": "Point", "coordinates": [ 483082.581047175161075, 4421318.150765183381736 ] } },
{ "type": "Feature", "properties": { "PARK_NAME": "J Francis Finnegan Playground", "DATE_INSTALLED": null, "COMMENTS": null, "DATA_SOURCE": "PPR GIS Field Site Visit 2025" }, "geometry": { "type": "Point", "coordinates": [ 480147.73537557804957, 4418372.899606036022305 ] } },
{ "type": "Feature", "properties": { "PARK_NAME": "J Francis Finnegan Playground", "DATE_INSTALLED": null, "COMMENTS": null, "DATA_SOURCE": "PPR GIS Field Site Visit 2025" }, "geometry": { "type": "Point", "coordinates": [ 480138.958967007929459, 4418366.59287079796195 ] } },
{ "type": "Feature", "properties": { "PARK_NAME": "J Francis Finnegan Playground", "DATE_INSTALLED": null, "COMMENTS": null, "DATA_SOURCE": "PPR GIS Field Site Visit 2025" }, "geometry": { "type": "Point", "coordinates": [ 480200.010961445979774, 4418400.963289302773774 ] } },
{ "type": "Feature", "properties": { "PARK_NAME": "George A Vare Recreation Center", "DATE_INSTALLED": null, "COMMENTS": null, "DATA_SOURCE": "PPR GIS Field Site Visit 2025" }, "geometry": { "type": "Point", "coordinates": [ 483818.181760071660392, 4420096.941239323467016 ] } },
{ "type": "Feature", "properties": { "PARK_NAME": "George A Vare Recreation Center", "DATE_INSTALLED": null, "COMMENTS": null, "DATA_SOURCE": "PPR GIS Field Site Visit 2025" }, "geometry": { "type": "Point", "coordinates": [ 483822.300962646491826, 4420118.478905303403735 ] } },
{ "type": "Feature", "properties": { "PARK_NAME": "George A Vare Recreation Center", "DATE_INSTALLED": null, "COMMENTS": null, "DATA_SOURCE": "PPR GIS Field Site Visit 2025" }, "geometry": { "type": "Point", "coordinates": [ 483873.765637498465367, 4420115.718962159007788 ] } },
{ "type": "Feature", "properties": { "PARK_NAME": "George A Vare Recreation Center", "DATE_INSTALLED": null, "COMMENTS": null, "DATA_SOURCE": "PPR GIS Field Site Visit 2025" }, "geometry": { "type": "Point", "coordinates": [ 483876.775601706758607, 4420099.458465052768588 ] } },
{ "type": "Feature", "properties": { "PARK_NAME": "George A Vare Recreation Center", "DATE_INSTALLED": null, "COMMENTS": null, "DATA_SOURCE": "PPR GIS Field Site Visit 2025" }, "geometry": { "type": "Point", "coordinates": [ 483883.645892655709758, 4420157.396771110594273 ] } },
{ "type": "Feature", "properties": { "PARK_NAME": "George A Vare Recreation Center", "DATE_INSTALLED": null, "COMMENTS": null, "DATA_SOURCE": "PPR GIS Field Site Visit 2025" }, "geometry": { "type": "Point", "coordinates": [ 483831.997167300782166, 4420161.235238213092089 ] } },
{ "type": "Feature", "properties": { "PARK_NAME": "George A Vare Recreation Center", "DATE_INSTALLED": null, "COMMENTS": null, "DATA_SOURCE": "PPR GIS Field Site Visit 2025" }, "geometry": { "type": "Point", "coordinates": [ 483871.225893681752495, 4420181.18140612822026 ] } },
{ "type": "Feature", "properties": { "PARK_NAME": "George A Vare Recreation Center", "DATE_INSTALLED": null, "COMMENTS": null, "DATA_SOURCE": "PPR GIS Field Site Visit 2025" }, "geometry": { "type": "Point", "coordinates": [ 483843.776487223047297, 4420186.131982335820794 ] } },
{ "type": "Feature", "properties": { "PARK_NAME": "George A Vare Recreation Center", "DATE_INSTALLED": null, "COMMENTS": null, "DATA_SOURCE": "PPR GIS Field Site Visit 2025" }, "geometry": { "type": "Point", "coordinates": [ 483837.753035725094378, 4420203.146740084514022 ] } }
]
}
