{
"type": "FeatureCollection",
"name": "univ_square_gdf",
"crs": { "type": "name", "properties": { "name": "urn:ogc:def:crs:EPSG::26918" } },
"features": [
{ "type": "Feature", "properties": { }, "geometry": { "type": "Polygon", "coordinates": [ [ [ 484981.479412209999282, 4421060.110705542378128 ], [ 484981.479412209999282, 4424007.845725603401661 ], [ 481911.037495848315302, 4424007.845725603401661 ], [ 481911.037495848315302, 4421060.110705542378128 ], [ 484981.479412209999282, 4421060.110705542378128 ] ] ] } }
]
}
